QIANFAN-89              
1 63175U 25046S   25356.13482103  .00000145  00000+0  20574-3 0  9992
2 63175  88.9772 319.0653 0018399  96.2795 264.0452 13.50979031 48676
QIANFAN-90              
1 63176U 25046T   25356.16355612  .00000136  00000+0  19208-3 0  9992
2 63176  88.9772 319.0347 0015350  94.2727 266.0178 13.50979334 48699
QIANFAN-91              
1 66033U 25233A   25355.62454382  .00000056  00000+0  51174-4 0  9999
2 66033  88.9945  61.2210 0016873  19.1732 341.0059 13.67494091  9198
QIANFAN-92              
1 66034U 25233B   25356.11552228  .00000056  00000+0  51079-4 0  9997
2 66034  88.9828  61.1907 0013563  27.7804 332.4079 13.67649067  9268
QIANFAN-93              
1 66035U 25233C   25355.62879997 -.02071385  00000+0 -27109+1 0  9998
2 66035  88.9948  61.2232 0018359  29.6152 330.6043 13.65665013  9199
QIANFAN-94              
1 66036U 25233D   25356.15063116  .00000064  00000+0  56171-4 0  9993
2 66036  88.9953  61.1528 0015614  15.9183 344.2468 13.72043164  9272
QIANFAN-95              
1 66037U 25233E   25356.17220355 -.02049958  00000+0 -13245+1 0  9996
2 66037  88.9944  60.9921 0016082  17.9760 342.1988 14.06986145  9367
QIANFAN-96              
1 66038U 25233F   25356.16635602 -.02045023  00000+0 -27533+1 0  9995
2 66038  88.9942  61.1739 0019857  24.2040 336.0047 13.63846698  9268
